[{"OBJECT_NAME":"STARLINK-1143","OBJECT_ID":"2020-012B","EPOCH":"2026-03-09T22:47:16.050048","MEAN_MOTION":15.62989311,"ECCENTRICITY":0.00073955,"INCLINATION":53.0474,"RA_OF_ASC_NODE":328.6332,"ARG_OF_PERICENTER":96.968,"MEAN_ANOMALY":263.2175,"EPHEMERIS_TYPE":0,"CLASSIFICATION_TYPE":"U","NORAD_CAT_ID":45179,"ELEMENT_SET_NO":999,"REV_AT_EPOCH":33596,"BSTAR":0.0013180943,"MEAN_MOTION_DOT":0.00123267,"MEAN_MOTION_DDOT":0},{"OBJECT_NAME":"STARLINK-1411","OBJECT_ID":"2020-035BB","EPOCH":"2026-03-09T22:47:07.657152","MEAN_MOTION":15.62165169,"ECCENTRICITY":0.00051821,"INCLINATION":53.045,"RA_OF_ASC_NODE":340.1671,"ARG_OF_PERICENTER":132.4601,"MEAN_ANOMALY":227.6851,"EPHEMERIS_TYPE":0,"CLASSIFICATION_TYPE":"U","NORAD_CAT_ID":45706,"ELEMENT_SET_NO":999,"REV_AT_EPOCH":31996,"BSTAR":0.0011824976,"MEAN_MOTION_DOT":0.0010674,"MEAN_MOTION_DDOT":0}]
